<?xml version="1.0" encoding="UTF-8"?>
<kml xmlns="http://www.opengis.net/kml/2.2" xmlns:gx="http://www.google.com/kml/ext/2.2">
<Document>
  <!-- Begin Style Definitions -->
  <Style id="area1">
    <LineStyle>
      <color>FF000000</color>
      <width>1</width>
    </LineStyle>
    <PolyStyle>
      <color>BF000000</color>
      <fill>0</fill>
      <outline>1</outline>
    </PolyStyle>
  </Style>
  <Folder>
    <name>Area Features</name>
    <description>Area Features</description>
    <Placemark>
      <description><![CDATA[Unknown Area Type<BR><BR><B>LAYER</B> = Unknown Area Type<BR><B>MAP_NAME</B> = Auckland2026_1K_Tiles<BR><B>NAME</B> = AZ31_1334,AZ31_1335,AZ31_1336,AZ31_1434,AZ31_1435,AZ31_1436,AZ31_1433,AZ31_1432,AZ31_1437,AZ31_1532,AZ31_1533,AZ31_1534,AZ31_1535,AZ31_1536,AZ31_1537,AZ31_1538,AZ31_1539,AZ31_1632,AZ31_1633,AZ31_1634,AZ31_1635,AZ31_1636,AZ31_1637,AZ31_1638,AZ31_1639,AZ31_1631,AZ31_1731,AZ31_1732,AZ31_1733,AZ31_1734,AZ31_1735,AZ31_1736,AZ31_1737,AZ31_1738,AZ31_1739,AZ31_1730,AZ31_1830,AZ31_1831,AZ31_1832,AZ31_1833,AZ31_1834,AZ31_1835,AZ31_1836,AZ31_1837,AZ31_1838,AZ31_1931,AZ31_1932,AZ31_1933,AZ31_1934,AZ31_1935,AZ31_1936,AZ31_1937,AZ31_1938,AZ31_2031,AZ31_2032,AZ31_2033,AZ31_2034,AZ31_2035,AZ31_2036,AZ31_2037,AZ31_2132,AZ31_2133,AZ31_2134,AZ31_2135<BR><B>SHEET</B> = AZ31<BR><B>SCALE</B> = 1000<BR><B>CLOSED</B> = YES<BR><B>BORDER_STY</B> = Solid<BR><B>BORDER_COL</B> = RGB(0,0,0)<BR><B>BORDER_WID</B> = 1<BR><B>FILL_STYLE</B> = No Fill<BR><B>LABEL_POS</B> = 1748080.000,5973000.000,1748560.000,5973000.000,1749040.000,5973000.000,1748080.000,5972280.000,1748560.000,5972280.000,1749040.000,5972280.000,1747600.000,5972280.000,1747120.000,5972280.000,1749520.000,5972280.000,1747120.000,5971560.000,1747600.000,5971560.000,1748080.000,5971560.000,1748560.000,5971560.000,1749040.000,5971560.000,1749520.000,5971560.000,1750000.000,5971560.000,1750480.000,5971560.000,1747120.000,5970840.000,1747600.000,5970840.000,1748080.000,5970840.000,1748560.000,5970840.000,1749040.000,5970840.000,1749520.000,5970840.000,1750000.000,5970840.000,1750480.000,5970840.000,1746640.000,5970840.000,1746640.000,5970120.000,1747120.000,5970120.000,1747600.000,5970120.000,1748080.000,5970120.000,1748560.000,5970120.000,1749040.000,5970120.000,1749520.000,5970120.000,1750000.000,5970120.000,1750480.000,5970120.000,1746160.000,5970120.000,1746160.000,5969400.000,1746640.000,5969400.000,1747120.000,5969400.000,1747600.000,5969400.000,1748080.000,5969400.000,1748560.000,5969400.000,1749040.000,5969400.000,1749520.000,5969400.000,1750000.000,5969400.000,1746640.000,5968680.000,1747120.000,5968680.000,1747600.000,5968680.000,1748080.000,5968680.000,1748560.000,5968680.000,1749040.000,5968680.000,1749520.000,5968680.000,1750000.000,5968680.000,1746640.000,5967960.000,1747120.000,5967960.000,1747600.000,5967960.000,1748080.000,5967960.000,1748560.000,5967960.000,1749040.000,5967960.000,1749520.000,5967960.000,1747120.000,5967240.000,1747600.000,5967240.000,1748080.000,5967240.000,1748560.000,5967240.000<BR><B>FONT_SIZE</B> = 10<BR><B>FONT_COLOR</B> = RGB(0,0,0)<BR><B>FONT_CHARS</B> = 1<BR><B>FONT_WEIGH</B> = 400<BR><B>PERIMETER</B> = 22.563 km<BR><B>ENCLOSED_AREA</B> = 22.118 sq km]]></description>
      <name>AZ31_1334,AZ31_1335,AZ31_1336,AZ31_1434,AZ31_1435,AZ31_1436,AZ31_1433,AZ31_1432,AZ31_1437,AZ31_1532,AZ31_1533,AZ31_1534,AZ31_1535,AZ31_1536,AZ31_1537,AZ31_1538,AZ31_1539,AZ31_1632,AZ31_1633,AZ31_1634,AZ31_1635,AZ31_1636,AZ31_1637,AZ31_1638,AZ31_1639,AZ31_1631,AZ31_1731,AZ31_1732,AZ31_1733,AZ31_1734,AZ31_1735,AZ31_1736,AZ31_1737,AZ31_1738,AZ31_1739,AZ31_1730,AZ31_1830,AZ31_1831,AZ31_1832,AZ31_1833,AZ31_1834,AZ31_1835,AZ31_1836,AZ31_1837,AZ31_1838,AZ31_1931,AZ31_1932,AZ31_1933,AZ31_1934,AZ31_1935,AZ31_1936,AZ31_1937,AZ31_1938,AZ31_2031,AZ31_2032,AZ31_2033,AZ31_2034,AZ31_2035,AZ31_2036,AZ31_2037,AZ31_2132,AZ31_2133,AZ31_2134,AZ31_2135</name>
      <styleUrl>#area1</styleUrl>
      <Polygon>
        <outerBoundaryIs>
          <LinearRing>
            <coordinates>
              174.6751024098,-36.3861267685,0
              174.6697527007,-36.3862016901,0
              174.6696139530,-36.3797133902,0
              174.6642646683,-36.3797880548,0
              174.6641264088,-36.3732997298,0
              174.6587775483,-36.3733741374,0
              174.6534286682,-36.3734483056,0
              174.6480797686,-36.3735222345,0
              174.6482166963,-36.3800106119,0
              174.6428673333,-36.3800843188,0
              174.6375179509,-36.3801577863,0
              174.6376540343,-36.3866461909,0
              174.6377901613,-36.3931345879,0
              174.6324398712,-36.3932078505,0
              174.6325755973,-36.3996962574,0
              174.6272248437,-36.3997692976,0
              174.6273601687,-36.4062577142,0
              174.6274955370,-36.4127461232,0
              174.6328471799,-36.4126730485,0
              174.6329830363,-36.4191614329,0
              174.6331189362,-36.4256498097,0
              174.6384714494,-36.4255764608,0
              174.6386078379,-36.4320648128,0
              174.6439607768,-36.4319912067,0
              174.6493136962,-36.4319173607,0
              174.6546665961,-36.4318432749,0
              174.6600194765,-36.4317689492,0
              174.6598813079,-36.4252806669,0
              174.6652337235,-36.4252061189,0
              174.6705861195,-36.4251313311,0
              174.6704471053,-36.4186430764,0
              174.6757990366,-36.4185680665,0
              174.6756596221,-36.4120798219,0
              174.6755202522,-36.4055915698,0
              174.6808712743,-36.4055163556,0
              174.6807315046,-36.3990281138,0
              174.6805917795,-36.3925398644,0
              174.6804520990,-36.3860516074,0
              174.6751024098,-36.3861267685,0
            </coordinates>
          </LinearRing>
        </outerBoundaryIs>
      </Polygon>
    </Placemark>
  </Folder>
</Document>
</kml>
