<?xml version="1.0" encoding="UTF-8"?>
<kml xmlns="http://www.opengis.net/kml/2.2" xmlns:gx="http://www.google.com/kml/ext/2.2">
<Document>
  <!-- Begin Style Definitions -->
  <Style id="area1">
    <LineStyle>
      <color>FF000000</color>
      <width>1</width>
    </LineStyle>
    <PolyStyle>
      <color>BF000000</color>
      <fill>0</fill>
      <outline>1</outline>
    </PolyStyle>
  </Style>
  <Folder>
    <name>Area Features</name>
    <description>Area Features</description>
    <Placemark>
      <description><![CDATA[Unknown Area Type<BR><BR><B>LAYER</B> = Unknown Area Type<BR><B>MAP_NAME</B> = Auckland2026_1K_Tiles<BR><B>NAME</B> = AZ31_4240,AZ31_4241,AZ31_4242,AZ31_4340,AZ31_4341,AZ31_4342,AZ31_4339,AZ31_4338,AZ31_4337,AZ31_4437,AZ31_4438,AZ31_4439,AZ31_4440,AZ31_4441,AZ31_4436,AZ31_4536,AZ31_4537,AZ31_4538,AZ31_4539,AZ31_4540,AZ31_4541,AZ31_4535,AZ31_4542,AZ31_4635,AZ31_4636,AZ31_4637,AZ31_4638,AZ31_4639,AZ31_4640,AZ31_4641,AZ31_4642,AZ31_4735,AZ31_4736,AZ31_4737,AZ31_4738,AZ31_4739,AZ31_4740,AZ31_4741,AZ31_4742,AZ31_4743,AZ31_4744,AZ31_4835,AZ31_4836,AZ31_4837,AZ31_4838,AZ31_4839,AZ31_4840,AZ31_4841,AZ31_4842,AZ31_4843,AZ31_4844,AZ31_4834,AZ31_4833,AZ31_4832,AZ31_4831,AZ31_4931,AZ31_4932,AZ31_4933,AZ31_4934,AZ31_4935,AZ31_4936,AZ31_4937,AZ31_4938,AZ31_4939,AZ31_4940,AZ31_4941,AZ31_4942,AZ31_4943,AZ31_4944,AZ31_4930,AZ31_4945,AZ31_4946,AZ31_5030,AZ31_5031,AZ31_5032,AZ31_5033,AZ31_5034,AZ31_5035,AZ31_5036,AZ31_5037,AZ31_5038,AZ31_5039,AZ31_5040,AZ31_5041,AZ31_5042,AZ31_5043,AZ31_5044,AZ31_5045,AZ31_5046,AZ31_5047,AZ31_5048,BA31_0133,BA31_0135,BA31_0136,BA31_0137,BA31_0138,BA31_0139,BA31_0140,BA31_0144,BA31_0145,BA31_0146,BA31_0147,BA31_0148,BA31_0149,BA31_0150,BA31_0235,BA31_0236,BA31_0237,BA31_0238,BA31_0239,BA31_0245,BA31_0246,BA31_0247,BA31_0248,BA31_0249,BA31_0250,BA31_0335,BA31_0336,BA31_0337,BA31_0346,BA31_0347,BA31_0348,BA31_0349,BA31_0350,BA31_0447,BA31_0448,BA31_0449,BA31_0450,BA31_0548,BA31_0549,BA31_0550,BA32_0101,BA32_0201,BA32_0301,BA32_0401,BA32_0501,AZ32_5001,BA32_0202,BA32_0302,BA32_0402,BA32_0203,BA32_0303,BA32_0403,BA32_0204,BA32_0304,BA32_0404,BA32_0104,BA32_0105,BA32_0205,BA32_0305,AZ32_5005,AZ32_5006,BA32_0106,BA32_0206,AZ32_5007,BA32_0107,BA32_0207,BA32_0108,AZ32_5008,BA32_0109,AZ32_5009,BA32_0110,AZ32_5010,AZ32_4908,AZ32_4909,AZ32_4910,AZ32_4907,AZ32_4906,AZ32_4905,BA32_0209,BA32_0210,BA32_0211,BA32_0111,AZ32_5011,AZ32_4911,AZ32_4912,AZ32_5012,BA32_0112,BA32_0212,AZ32_4808,AZ32_4809,AZ32_4810,AZ32_4811,AZ32_4812,AZ32_4813<BR><B>SHEET</B> = AZ31,BA31,BA32,AZ32<BR><B>SCALE</B> = 1000<BR><B>CLOSED</B> = YES<BR><B>BORDER_STY</B> = Solid<BR><B>BORDER_COL</B> = RGB(0,0,0)<BR><B>BORDER_WID</B> = 1<BR><B>FILL_STYLE</B> = No Fill<BR><B>LABEL_POS</B> = 1750960.000,5952120.000,1751440.000,5952120.000,1751920.000,5952120.000,1750960.000,5951400.000,1751440.000,5951400.000,1751920.000,5951400.000,1750480.000,5951400.000,1750000.000,5951400.000,1749520.000,5951400.000,1749520.000,5950680.000,1750000.000,5950680.000,1750480.000,5950680.000,1750960.000,5950680.000,1751440.000,5950680.000,1749040.000,5950680.000,1749040.000,5949960.000,1749520.000,5949960.000,1750000.000,5949960.000,1750480.000,5949960.000,1750960.000,5949960.000,1751440.000,5949960.000,1748560.000,5949960.000,1751920.000,5949960.000,1748560.000,5949240.000,1749040.000,5949240.000,1749520.000,5949240.000,1750000.000,5949240.000,1750480.000,5949240.000,1750960.000,5949240.000,1751440.000,5949240.000,1751920.000,5949240.000,1748560.000,5948520.000,1749040.000,5948520.000,1749520.000,5948520.000,1750000.000,5948520.000,1750480.000,5948520.000,1750960.000,5948520.000,1751440.000,5948520.000,1751920.000,5948520.000,1752400.000,5948520.000,1752880.000,5948520.000,1748560.000,5947800.000,1749040.000,5947800.000,1749520.000,5947800.000,1750000.000,5947800.000,1750480.000,5947800.000,1750960.000,5947800.000,1751440.000,5947800.000,1751920.000,5947800.000,1752400.000,5947800.000,1752880.000,5947800.000,1748080.000,5947800.000,1747600.000,5947800.000,1747120.000,5947800.000,1746640.000,5947800.000,1746640.000,5947080.000,1747120.000,5947080.000,1747600.000,5947080.000,1748080.000,5947080.000,1748560.000,5947080.000,1749040.000,5947080.000,1749520.000,5947080.000,1750000.000,5947080.000,1750480.000,5947080.000,1750960.000,5947080.000,1751440.000,5947080.000,1751920.000,5947080.000,1752400.000,5947080.000,1752880.000,5947080.000,1746160.000,5947080.000,1753360.000,5947080.000,1753840.000,5947080.000,1746160.000,5946360.000,1746640.000,5946360.000,1747120.000,5946360.000,1747600.000,5946360.000,1748080.000,5946360.000,1748560.000,5946360.000,1749040.000,5946360.000,1749520.000,5946360.000,1750000.000,5946360.000,1750480.000,5946360.000,1750960.000,5946360.000,1751440.000,5946360.000,1751920.000,5946360.000,1752400.000,5946360.000,1752880.000,5946360.000,1753360.000,5946360.000,1753840.000,5946360.000,1754320.000,5946360.000,1754800.000,5946360.000,1747600.000,5945640.000,1748560.000,5945640.000,1749040.000,5945640.000,1749520.000,5945640.000,1750000.000,5945640.000,1750480.000,5945640.000,1750960.000,5945640.000,1752880.000,5945640.000,1753360.000,5945640.000,1753840.000,5945640.000,1754320.000,5945640.000,1754800.000,5945640.000,1755280.000,5945640.000,1755760.000,5945640.000,1748560.000,5944920.000,1749040.000,5944920.000,1749520.000,5944920.000,1750000.000,5944920.000,1750480.000,5944920.000,1753360.000,5944920.000,1753840.000,5944920.000,1754320.000,5944920.000,1754800.000,5944920.000,1755280.000,5944920.000,1755760.000,5944920.000,1748560.000,5944200.000,1749040.000,5944200.000,1749520.000,5944200.000,1753840.000,5944200.000,1754320.000,5944200.000,1754800.000,5944200.000,1755280.000,5944200.000,1755760.000,5944200.000,1754320.000,5943480.000,1754800.000,5943480.000,1755280.000,5943480.000,1755760.000,5943480.000,1754800.000,5942760.000,1755280.000,5942760.000,1755760.000,5942760.000,1756240.000,5945640.000,1756240.000,5944920.000,1756240.000,5944200.000,1756240.000,5943480.000,1756240.000,5942760.000,1756240.000,5946360.000,1756720.000,5944920.000,1756720.000,5944200.000,1756720.000,5943480.000,1757200.000,5944920.000,1757200.000,5944200.000,1757200.000,5943480.000,1757680.000,5944920.000,1757680.000,5944200.000,1757680.000,5943480.000,1757680.000,5945640.000,1758160.000,5945640.000,1758160.000,5944920.000,1758160.000,5944200.000,1758160.000,5946360.000,1758640.000,5946360.000,1758640.000,5945640.000,1758640.000,5944920.000,1759120.000,5946360.000,1759120.000,5945640.000,1759120.000,5944920.000,1759600.000,5945640.000,1759600.000,5946360.000,1760080.000,5945640.000,1760080.000,5946360.000,1760560.000,5945640.000,1760560.000,5946360.000,1759600.000,5947080.000,1760080.000,5947080.000,1760560.000,5947080.000,1759120.000,5947080.000,1758640.000,5947080.000,1758160.000,5947080.000,1760080.000,5944920.000,1760560.000,5944920.000,1761040.000,5944920.000,1761040.000,5945640.000,1761040.000,5946360.000,1761040.000,5947080.000,1761520.000,5947080.000,1761520.000,5946360.000,1761520.000,5945640.000,1761520.000,5944920.000,1759600.000,5947800.000,1760080.000,5947800.000,1760560.000,5947800.000,1761040.000,5947800.000,1761520.000,5947800.000,1762000.000,5947800.000<BR><B>FONT_SIZE</B> = 10<BR><B>FONT_COLOR</B> = RGB(0,0,0)<BR><B>FONT_CHARS</B> = 1<BR><B>FONT_WEIGH</B> = 400<BR><B>PERIMETER</B> = 68.167 km<BR><B>ENCLOSED_AREA</B> = 63.936 sq km]]></description>
      <name>AZ31_4240,AZ31_4241,AZ31_4242,AZ31_4340,AZ31_4341,AZ31_4342,AZ31_4339,AZ31_4338,AZ31_4337,AZ31_4437,AZ31_4438,AZ31_4439,AZ31_4440,AZ31_4441,AZ31_4436,AZ31_4536,AZ31_4537,AZ31_4538,AZ31_4539,AZ31_4540,AZ31_4541,AZ31_4535,AZ31_4542,AZ31_4635,AZ31_4636,AZ31_4637,AZ31_4638,AZ31_4639,AZ31_4640,AZ31_4641,AZ31_4642,AZ31_4735,AZ31_4736,AZ31_4737,AZ31_4738,AZ31_4739,AZ31_4740,AZ31_4741,AZ31_4742,AZ31_4743,AZ31_4744,AZ31_4835,AZ31_4836,AZ31_4837,AZ31_4838,AZ31_4839,AZ31_4840,AZ31_4841,AZ31_4842,AZ31_4843,AZ31_4844,AZ31_4834,AZ31_4833,AZ31_4832,AZ31_4831,AZ31_4931,AZ31_4932,AZ31_4933,AZ31_4934,AZ31_4935,AZ31_4936,AZ31_4937,AZ31_4938,AZ31_4939,AZ31_4940,AZ31_4941,AZ31_4942,AZ31_4943,AZ31_4944,AZ31_4930,AZ31_4945,AZ31_4946,AZ31_5030,AZ31_5031,AZ31_5032,AZ31_5033,AZ31_5034,AZ31_5035,AZ31_5036,AZ31_5037,AZ31_5038,AZ31_5039,AZ31_5040,AZ31_5041,AZ31_5042,AZ31_5043,AZ31_5044,AZ31_5045,AZ31_5046,AZ31_5047,AZ31_5048,BA31_0133,BA31_0135,BA31_0136,BA31_0137,BA31_0138,BA31_0139,BA31_0140,BA31_0144,BA31_0145,BA31_0146,BA31_0147,BA31_0148,BA31_0149,BA31_0150,BA31_0235,BA31_0236,BA31_0237,BA31_0238,BA31_0239,BA31_0245,BA31_0246,BA31_0247,BA31_0248,BA31_0249,BA31_0250,BA31_0335,BA31_0336,BA31_0337,BA31_0346,BA31_0347,BA31_0348,BA31_0349,BA31_0350,BA31_0447,BA31_0448,BA31_0449,BA31_0450,BA31_0548,BA31_0549,BA31_0550,BA32_0101,BA32_0201,BA32_0301,BA32_0401,BA32_0501,AZ32_5001,BA32_0202,BA32_0302,BA32_0402,BA32_0203,BA32_0303,BA32_0403,BA32_0204,BA32_0304,BA32_0404,BA32_0104,BA32_0105,BA32_0205,BA32_0305,AZ32_5005,AZ32_5006,BA32_0106,BA32_0206,AZ32_5007,BA32_0107,BA32_0207,BA32_0108,AZ32_5008,BA32_0109,AZ32_5009,BA32_0110,AZ32_5010,AZ32_4908,AZ32_4909,AZ32_4910,AZ32_4907,AZ32_4906,AZ32_4905,BA32_0209,BA32_0210,BA32_0211,BA32_0111,AZ32_5011,AZ32_4911,AZ32_4912,AZ32_5012,BA32_0112,BA32_0212,AZ32_4808,AZ32_4809,AZ32_4810,AZ32_4811,AZ32_4812,AZ32_4813</name>
      <styleUrl>#area1</styleUrl>
      <Polygon>
        <outerBoundaryIs>
          <LinearRing>
            <coordinates>
              174.7877542840,-36.6311132840,0
              174.7931205375,-36.6310326162,0
              174.7984867695,-36.6309517069,0
              174.8038529801,-36.6308705561,0
              174.8092191693,-36.6307891637,0
              174.8090674903,-36.6243016113,0
              174.8089158600,-36.6178140513,0
              174.8087642781,-36.6113264836,0
              174.8086127447,-36.6048389083,0
              174.8139771160,-36.6047573511,0
              174.8138251823,-36.5982697874,0
              174.8084612598,-36.5983513254,0
              174.8030973156,-36.5984326222,0
              174.7977333501,-36.5985136777,0
              174.7923693631,-36.5985944920,0
              174.7870053548,-36.5986750650,0
              174.7816413251,-36.5987553967,0
              174.7817905664,-36.6052430746,0
              174.7764260668,-36.6053231839,0
              174.7710615461,-36.6054030519,0
              174.7656970043,-36.6054826786,0
              174.7658449466,-36.6119704052,0
              174.7659929363,-36.6184581242,0
              174.7606274755,-36.6185375469,0
              174.7607750633,-36.6250252770,0
              174.7554091323,-36.6251044768,0
              174.7500431803,-36.6251834351,0
              174.7498964909,-36.6186956678,0
              174.7497498484,-36.6122078929,0
              174.7443847739,-36.6122865727,0
              174.7445309673,-36.6187743661,0
              174.7391654229,-36.6188528229,0
              174.7337998578,-36.6189310383,0
              174.7336545626,-36.6124432081,0
              174.7282894259,-36.6125211637,0
              174.7229242686,-36.6125988779,0
              174.7227799178,-36.6061110035,0
              174.7174151889,-36.6061884581,0
              174.7120504396,-36.6062656713,0
              174.7119070326,-36.5997777530,0
              174.7117636715,-36.5932898271,0
              174.7063997994,-36.5933667627,0
              174.7010359069,-36.5934434571,0
              174.7008934887,-36.5869554876,0
              174.7007511161,-36.5804675105,0
              174.6953881004,-36.5805439277,0
              174.6952462216,-36.5740559251,0
              174.7006087890,-36.5739795259,0
              174.7004665075,-36.5674915337,0
              174.7003242715,-36.5610035339,0
              174.6949626001,-36.5610798972,0
              174.6896009086,-36.5611560195,0
              174.6842391971,-36.5612319008,0
              174.6843800891,-36.5677199543,0
              174.6790179095,-36.5677956125,0
              174.6736557099,-36.5678710296,0
              174.6682934904,-36.5679462057,0
              174.6684330830,-36.5744343048,0
              174.6630703955,-36.5745092575,0
              174.6632095844,-36.5809973667,0
              174.6578464288,-36.5810720959,0
              174.6579852138,-36.5875602151,0
              174.6581240433,-36.5940483269,0
              174.6582629172,-36.6005364311,0
              174.6528983960,-36.6006109716,0
              174.6475338550,-36.6006852708,0
              174.6421692945,-36.6007593287,0
              174.6368047144,-36.6008331452,0
              174.6369418371,-36.6073213116,0
              174.6315767886,-36.6073949041,0
              174.6317135060,-36.6138830803,0
              174.6318502673,-36.6203712491,0
              174.6372162141,-36.6202976220,0
              174.6425821414,-36.6202237534,0
              174.6479480491,-36.6201496433,0
              174.6480862021,-36.6266377524,0
              174.6534525396,-36.6265633833,0
              174.6533139372,-36.6200752917,0
              174.6586798055,-36.6200006986,0
              174.6588188573,-36.6264887726,0
              174.6589579535,-36.6329768392,0
              174.6590970942,-36.6394648982,0
              174.6644642913,-36.6393900108,0
              174.6698314684,-36.6393148817,0
              174.6751986257,-36.6392395110,0
              174.6750581361,-36.6327515049,0
              174.6804248238,-36.6326759103,0
              174.6857914914,-36.6326000740,0
              174.6856501479,-36.6261120960,0
              174.6910163460,-36.6260360360,0
              174.6908745983,-36.6195480684,0
              174.6962403270,-36.6194717848,0
              174.7016060354,-36.6193952597,0
              174.7069717235,-36.6193184932,0
              174.7071148190,-36.6258064069,0
              174.7124809361,-36.6257293807,0
              174.7126245267,-36.6322172688,0
              174.7179910728,-36.6321399830,0
              174.7181351589,-36.6386278453,0
              174.7235021340,-36.6385502996,0
              174.7236467160,-36.6450381361,0
              174.7290141202,-36.6449603306,0
              174.7291591983,-36.6514481412,0
              174.7345270317,-36.6513700756,0
              174.7398948444,-36.6512917683,0
              174.7452626364,-36.6512132192,0
              174.7506304075,-36.6511344284,0
              174.7504835302,-36.6446466914,0
              174.7558508307,-36.6445676775,0
              174.7612181102,-36.6444884218,0
              174.7665853687,-36.6444089244,0
              174.7664371895,-36.6379212358,0
              174.7718039773,-36.6378415155,0
              174.7716553961,-36.6313538380,0
              174.7770217133,-36.6312738949,0
              174.7823880093,-36.6311937102,0
              174.7822385769,-36.6247060627,0
              174.7876044023,-36.6246256554,0
              174.7877542840,-36.6311132840,0
            </coordinates>
          </LinearRing>
        </outerBoundaryIs>
      </Polygon>
    </Placemark>
  </Folder>
</Document>
</kml>
