<?xml version="1.0" encoding="UTF-8"?>
<kml xmlns="http://www.opengis.net/kml/2.2" xmlns:gx="http://www.google.com/kml/ext/2.2">
<Document>
  <!-- Begin Style Definitions -->
  <Style id="area1">
    <LineStyle>
      <color>FF000000</color>
      <width>1</width>
    </LineStyle>
    <PolyStyle>
      <color>BF000000</color>
      <fill>0</fill>
      <outline>1</outline>
    </PolyStyle>
  </Style>
  <Folder>
    <name>Area Features</name>
    <description>Area Features</description>
    <Placemark>
      <description><![CDATA[Unknown Area Type<BR><BR><B>LAYER</B> = Unknown Area Type<BR><B>MAP_NAME</B> = Auckland2026_1K_Tiles<BR><B>NAME</B> = BB32_3627,BB32_3628,BB32_3629,BB32_3727,BB32_3728,BB32_3729,BB32_3827,BB32_3828,BB32_3829,BB32_3830,BB32_3831,BB32_3832,BB32_3732,BB32_3733,BB32_3833,BB32_3734,BB32_3834,BB32_3735,BB32_3835,BB32_3927,BB32_3928,BB32_3929,BB32_3930,BB32_3931,BB32_3932,BB32_3933,BB32_3934,BB32_3935,BB32_4027,BB32_4028,BB32_4029,BB32_4030,BB32_4031,BB32_4032,BB32_4033,BB32_4034,BB32_4127,BB32_4128,BB32_4129,BB32_4130,BB32_4131,BB32_4132,BB32_4133,BB32_4134,BB32_4227,BB32_4228,BB32_4229,BB32_4230,BB32_4231,BB32_4232,BB32_4233,BB32_4327,BB32_4328,BB32_4329,BB32_4330,BB32_4331,BB32_4332,BB32_4333,BB32_4427,BB32_4428,BB32_4429,BB32_4430,BB32_4431,BB32_4432,BB32_4433,BB32_4529,BB32_4530,BB32_4531,BB32_4532,BB32_4533,BB32_4632,BB32_3527,BB32_3528,BB32_3427,BB32_3428,BB32_3426,BB32_3526,BB32_3626,BB32_3726,BB32_3826,BB32_3926,BB32_4026,BB32_4126,BB32_4226,BB32_4326,BB32_4426,BB32_3425,BB32_3525,BB32_3925,BB32_4025,BB32_4125,BB32_4225,BB32_4325,BB32_4425,BB32_3825,BB32_3725,BB32_4124,BB32_4224,BB32_4324,BB32_4024,BB32_4424,BB32_3924,BB32_3824,BB32_3823,BB32_3923,BB32_4023,BB32_4123,BB32_4223,BB32_3424,BB32_4122,BB32_3324,BB32_3325,BB32_3326,BB32_3327,BB32_3328,BB32_3224,BB32_3225,BB32_3226,BB32_3227,BB32_3228,BB32_3127,BB32_3128,BB32_3126,BB32_3125,BB32_3124,BB32_3026,BB32_3025,BB32_3229,BB32_3129<BR><B>SHEET</B> = BB32<BR><B>SCALE</B> = 1000<BR><B>CLOSED</B> = YES<BR><B>BORDER_STY</B> = Solid<BR><B>BORDER_COL</B> = RGB(0,0,0)<BR><B>BORDER_WID</B> = 1<BR><B>FILL_STYLE</B> = No Fill<BR><B>LABEL_POS</B> = 1768720.000,5884440.000,1769200.000,5884440.000,1769680.000,5884440.000,1768720.000,5883720.000,1769200.000,5883720.000,1769680.000,5883720.000,1768720.000,5883000.000,1769200.000,5883000.000,1769680.000,5883000.000,1770160.000,5883000.000,1770640.000,5883000.000,1771120.000,5883000.000,1771120.000,5883720.000,1771600.000,5883720.000,1771600.000,5883000.000,1772080.000,5883720.000,1772080.000,5883000.000,1772560.000,5883720.000,1772560.000,5883000.000,1768720.000,5882280.000,1769200.000,5882280.000,1769680.000,5882280.000,1770160.000,5882280.000,1770640.000,5882280.000,1771120.000,5882280.000,1771600.000,5882280.000,1772080.000,5882280.000,1772560.000,5882280.000,1768720.000,5881560.000,1769200.000,5881560.000,1769680.000,5881560.000,1770160.000,5881560.000,1770640.000,5881560.000,1771120.000,5881560.000,1771600.000,5881560.000,1772080.000,5881560.000,1768720.000,5880840.000,1769200.000,5880840.000,1769680.000,5880840.000,1770160.000,5880840.000,1770640.000,5880840.000,1771120.000,5880840.000,1771600.000,5880840.000,1772080.000,5880840.000,1768720.000,5880120.000,1769200.000,5880120.000,1769680.000,5880120.000,1770160.000,5880120.000,1770640.000,5880120.000,1771120.000,5880120.000,1771600.000,5880120.000,1768720.000,5879400.000,1769200.000,5879400.000,1769680.000,5879400.000,1770160.000,5879400.000,1770640.000,5879400.000,1771120.000,5879400.000,1771600.000,5879400.000,1768720.000,5878680.000,1769200.000,5878680.000,1769680.000,5878680.000,1770160.000,5878680.000,1770640.000,5878680.000,1771120.000,5878680.000,1771600.000,5878680.000,1769680.000,5877960.000,1770160.000,5877960.000,1770640.000,5877960.000,1771120.000,5877960.000,1771600.000,5877960.000,1771120.000,5877240.000,1768720.000,5885160.000,1769200.000,5885160.000,1768720.000,5885880.000,1769200.000,5885880.000,1768240.000,5885880.000,1768240.000,5885160.000,1768240.000,5884440.000,1768240.000,5883720.000,1768240.000,5883000.000,1768240.000,5882280.000,1768240.000,5881560.000,1768240.000,5880840.000,1768240.000,5880120.000,1768240.000,5879400.000,1768240.000,5878680.000,1767760.000,5885880.000,1767760.000,5885160.000,1767760.000,5882280.000,1767760.000,5881560.000,1767760.000,5880840.000,1767760.000,5880120.000,1767760.000,5879400.000,1767760.000,5878680.000,1767760.000,5883000.000,1767760.000,5883720.000,1767280.000,5880840.000,1767280.000,5880120.000,1767280.000,5879400.000,1767280.000,5881560.000,1767280.000,5878680.000,1767280.000,5882280.000,1767280.000,5883000.000,1766800.000,5883000.000,1766800.000,5882280.000,1766800.000,5881560.000,1766800.000,5880840.000,1766800.000,5880120.000,1767280.000,5885880.000,1766320.000,5880840.000,1767280.000,5886600.000,1767760.000,5886600.000,1768240.000,5886600.000,1768720.000,5886600.000,1769200.000,5886600.000,1767280.000,5887320.000,1767760.000,5887320.000,1768240.000,5887320.000,1768720.000,5887320.000,1769200.000,5887320.000,1768720.000,5888040.000,1769200.000,5888040.000,1768240.000,5888040.000,1767760.000,5888040.000,1767280.000,5888040.000,1768240.000,5888760.000,1767760.000,5888760.000,1769680.000,5887320.000,1769680.000,5888040.000<BR><B>FONT_SIZE</B> = 10<BR><B>FONT_COLOR</B> = RGB(0,0,0)<BR><B>FONT_CHARS</B> = 1<BR><B>FONT_WEIGH</B> = 400<BR><B>PERIMETER</B> = 42.242 km<BR><B>ENCLOSED_AREA</B> = 44.582 sq km]]></description>
      <name>BB32_3627,BB32_3628,BB32_3629,BB32_3727,BB32_3728,BB32_3729,BB32_3827,BB32_3828,BB32_3829,BB32_3830,BB32_3831,BB32_3832,BB32_3732,BB32_3733,BB32_3833,BB32_3734,BB32_3834,BB32_3735,BB32_3835,BB32_3927,BB32_3928,BB32_3929,BB32_3930,BB32_3931,BB32_3932,BB32_3933,BB32_3934,BB32_3935,BB32_4027,BB32_4028,BB32_4029,BB32_4030,BB32_4031,BB32_4032,BB32_4033,BB32_4034,BB32_4127,BB32_4128,BB32_4129,BB32_4130,BB32_4131,BB32_4132,BB32_4133,BB32_4134,BB32_4227,BB32_4228,BB32_4229,BB32_4230,BB32_4231,BB32_4232,BB32_4233,BB32_4327,BB32_4328,BB32_4329,BB32_4330,BB32_4331,BB32_4332,BB32_4333,BB32_4427,BB32_4428,BB32_4429,BB32_4430,BB32_4431,BB32_4432,BB32_4433,BB32_4529,BB32_4530,BB32_4531,BB32_4532,BB32_4533,BB32_4632,BB32_3527,BB32_3528,BB32_3427,BB32_3428,BB32_3426,BB32_3526,BB32_3626,BB32_3726,BB32_3826,BB32_3926,BB32_4026,BB32_4126,BB32_4226,BB32_4326,BB32_4426,BB32_3425,BB32_3525,BB32_3925,BB32_4025,BB32_4125,BB32_4225,BB32_4325,BB32_4425,BB32_3825,BB32_3725,BB32_4124,BB32_4224,BB32_4324,BB32_4024,BB32_4424,BB32_3924,BB32_3824,BB32_3823,BB32_3923,BB32_4023,BB32_4123,BB32_4223,BB32_3424,BB32_4122,BB32_3324,BB32_3325,BB32_3326,BB32_3327,BB32_3328,BB32_3224,BB32_3225,BB32_3226,BB32_3227,BB32_3228,BB32_3127,BB32_3128,BB32_3126,BB32_3125,BB32_3124,BB32_3026,BB32_3025,BB32_3229,BB32_3129</name>
      <styleUrl>#area1</styleUrl>
      <Polygon>
        <outerBoundaryIs>
          <LinearRing>
            <coordinates>
              174.9264639706,-37.2389571686,0
              174.9318725830,-37.2388690264,0
              174.9317070122,-37.2323825941,0
              174.9371151381,-37.2322942257,0
              174.9369491577,-37.2258078063,0
              174.9367832303,-37.2193213791,0
              174.9366173561,-37.2128349442,0
              174.9364515350,-37.2063485015,0
              174.9418577876,-37.2062599690,0
              174.9416915575,-37.1997735393,0
              174.9415253807,-37.1932871018,0
              174.9469306855,-37.1931983643,0
              174.9467641001,-37.1867119397,0
              174.9465975680,-37.1802255074,0
              174.9464310893,-37.1737390674,0
              174.9410271694,-37.1738277427,0
              174.9356232258,-37.1739161718,0
              174.9302192587,-37.1740043546,0
              174.9248152681,-37.1740922911,0
              174.9249799008,-37.1805788137,0
              174.9195754253,-37.1806665244,0
              174.9141709264,-37.1807539889,0
              174.9140072167,-37.1742674253,0
              174.9138435594,-37.1677808541,0
              174.9084399601,-37.1678680314,0
              174.9082768165,-37.1613814320,0
              174.9081137251,-37.1548948249,0
              174.9079506860,-37.1484082101,0
              174.9133529020,-37.1483210939,0
              174.9131894543,-37.1418344916,0
              174.9130260588,-37.1353478817,0
              174.9076247643,-37.1354349572,0
              174.9022234465,-37.1355217868,0
              174.8968221056,-37.1356083704,0
              174.8966601441,-37.1291216919,0
              174.8912592407,-37.1292080094,0
              174.8858583143,-37.1292940810,0
              174.8860193548,-37.1357807999,0
              174.8806179449,-37.1358666457,0
              174.8807785763,-37.1423533769,0
              174.8809392592,-37.1488401004,0
              174.8810999935,-37.1553268162,0
              174.8812607792,-37.1618135243,0
              174.8866640327,-37.1617275982,0
              174.8868253313,-37.1682142785,0
              174.8922290231,-37.1681280860,0
              174.8923908348,-37.1746147385,0
              174.8869866815,-37.1747009510,0
              174.8871480834,-37.1811876159,0
              174.8817434457,-37.1812736022,0
              174.8763387850,-37.1813593422,0
              174.8764993151,-37.1878460395,0
              174.8766598967,-37.1943327290,0
              174.8768205297,-37.2008194109,0
              174.8714144605,-37.2009049645,0
              174.8715746828,-37.2073916586,0
              174.8769812142,-37.2073060850,0
              174.8771419502,-37.2137927514,0
              174.8825489210,-37.2137069112,0
              174.8827101709,-37.2201935498,0
              174.8828714725,-37.2266801807,0
              174.8882793455,-37.2265940536,0
              174.8936871954,-37.2265076798,0
              174.8990950222,-37.2264210592,0
              174.9045028258,-37.2263341919,0
              174.9099106063,-37.2262470778,0
              174.9100742732,-37.2327335998,0
              174.9154824931,-37.2326462186,0
              174.9208906896,-37.2325585905,0
              174.9262988626,-37.2324707157,0
              174.9264639706,-37.2389571686,0
            </coordinates>
          </LinearRing>
        </outerBoundaryIs>
      </Polygon>
    </Placemark>
  </Folder>
</Document>
</kml>
